{
  "type": "FeatureCollection",
  "features": [
    {
      "type": "Feature",
      "properties": {
        "norad_id": 58647,
        "name": "TIANMU-1 13",
        "group": "weather",
        "lat": 23.239138428811312,
        "lon": -164.54918953747705,
        "alt_km": 491.201806031916,
        "timestamp": "2025-12-18T17:50:14.600675+00:00",
        "meta_object_name": "TIANMU-1 13",
        "meta_object_id": "2023-205C",
        "meta_epoch": "2025-12-18T07:42:05.831712",
        "meta_mean_motion": 15.24594876,
        "meta_eccentricity": 0.00061757,
        "meta_inclination": 97.3614,
        "meta_ra_of_asc_node": 11.8534,
        "meta_arg_of_pericenter": 242.0949,
        "meta_mean_anomaly": 117.9664,
        "meta_ephemeris_type": 0,
        "meta_classification_type": "U",
        "meta_norad_cat_id": 58647,
        "meta_element_set_no": 999,
        "meta_rev_at_epoch": 10992,
        "meta_bstar": 0.00022715023,
        "meta_mean_motion_dot": 5.531e-05,
        "meta_mean_motion_ddot": 0,
        "tle_line1": "1 58647U 23205C   25352.32090083  .00005531  00000+0  22715-3 0  9997",
        "tle_line2": "2 58647  97.3614  11.8534 0006175 242.0949 117.9664 15.24594876109929"
      },
      "geometry": {
        "type": "Point",
        "coordinates": [
          -164.54918953747705,
          23.239138428811312
        ]
      }
    },
    {
      "type": "Feature",
      "properties": {
        "norad_id": 58648,
        "name": "TIANMU-1 14",
        "group": "weather",
        "lat": -66.15350623949631,
        "lon": 174.62115332141133,
        "alt_km": 494.5461024804963,
        "timestamp": "2025-12-18T17:50:14.600685+00:00",
        "meta_object_name": "TIANMU-1 14",
        "meta_object_id": "2023-205D",
        "meta_epoch": "2025-12-18T07:18:16.781760",
        "meta_mean_motion": 15.24577748,
        "meta_eccentricity": 0.00069271,
        "meta_inclination": 97.3547,
        "meta_ra_of_asc_node": 11.1807,
        "meta_arg_of_pericenter": 248.2253,
        "meta_mean_anomaly": 111.8247,
        "meta_ephemeris_type": 0,
        "meta_classification_type": "U",
        "meta_norad_cat_id": 58648,
        "meta_element_set_no": 999,
        "meta_rev_at_epoch": 10992,
        "meta_bstar": 0.00021636011,
        "meta_mean_motion_dot": 5.263e-05,
        "meta_mean_motion_ddot": 0,
        "tle_line1": "1 58648U 23205D   25352.30436090  .00005263  00000+0  21636-3 0  9991",
        "tle_line2": "2 58648  97.3547  11.1807 0006927 248.2253 111.8247 15.24577748109921"
      },
      "geometry": {
        "type": "Point",
        "coordinates": [
          174.62115332141133,
          -66.15350623949631
        ]
      }
    },
    {
      "type": "Feature",
      "properties": {
        "norad_id": 58660,
        "name": "TIANMU-1 19",
        "group": "weather",
        "lat": -34.41101389902222,
        "lon": -81.36640099705406,
        "alt_km": 485.3004236962679,
        "timestamp": "2025-12-18T17:50:14.600695+00:00",
        "meta_object_name": "TIANMU-1 19",
        "meta_object_id": "2023-208A",
        "meta_epoch": "2025-12-18T07:28:12.749952",
        "meta_mean_motion": 15.27951474,
        "meta_eccentricity": 0.00043492,
        "meta_inclination": 97.4392,
        "meta_ra_of_asc_node": 103.3376,
        "meta_arg_of_pericenter": 228.107,
        "meta_mean_anomaly": 131.9799,
        "meta_ephemeris_type": 0,
        "meta_classification_type": "U",
        "meta_norad_cat_id": 58660,
        "meta_element_set_no": 999,
        "meta_rev_at_epoch": 10967,
        "meta_bstar": 0.00031372877,
        "meta_mean_motion_dot": 8.486e-05,
        "meta_mean_motion_ddot": 0,
        "tle_line1": "1 58660U 23208A   25352.31125868  .00008486  00000+0  31373-3 0  9996",
        "tle_line2": "2 58660  97.4392 103.3376 0004349 228.1070 131.9799 15.27951474109671"
      },
      "geometry": {
        "type": "Point",
        "coordinates": [
          -81.36640099705406,
          -34.41101389902222
        ]
      }
    },
    {
      "type": "Feature",
      "properties": {
        "norad_id": 58661,
        "name": "TIANMU-1 20",
        "group": "weather",
        "lat": -44.96791015183796,
        "lon": 111.71536297717684,
        "alt_km": 483.9111535092243,
        "timestamp": "2025-12-18T17:50:14.600705+00:00",
        "meta_object_name": "TIANMU-1 20",
        "meta_object_id": "2023-208B",
        "meta_epoch": "2025-12-18T07:02:32.026272",
        "meta_mean_motion": 15.29139966,
        "meta_eccentricity": 0.00064669,
        "meta_inclination": 97.4329,
        "meta_ra_of_asc_node": 103.7729,
        "meta_arg_of_pericenter": 242.4226,
        "meta_mean_anomaly": 117.6358,
        "meta_ephemeris_type": 0,
        "meta_classification_type": "U",
        "meta_norad_cat_id": 58661,
        "meta_element_set_no": 999,
        "meta_rev_at_epoch": 10974,
        "meta_bstar": 0.00027149485,
        "meta_mean_motion_dot": 7.607e-05,
        "meta_mean_motion_ddot": 0,
        "tle_line1": "1 58661U 23208B   25352.29342623  .00007607  00000+0  27149-3 0  9994",
        "tle_line2": "2 58661  97.4329 103.7729 0006466 242.4226 117.6358 15.29139966109748"
      },
      "geometry": {
        "type": "Point",
        "coordinates": [
          111.71536297717684,
          -44.96791015183796
        ]
      }
    },
    {
      "type": "Feature",
      "properties": {
        "norad_id": 58662,
        "name": "TIANMU-1 21",
        "group": "weather",
        "lat": 13.484756605155226,
        "lon": 104.36239992398961,
        "alt_km": 475.1120727549842,
        "timestamp": "2025-12-18T17:50:14.600715+00:00",
        "meta_object_name": "TIANMU-1 21",
        "meta_object_id": "2023-208C",
        "meta_epoch": "2025-12-18T06:48:09.546048",
        "meta_mean_motion": 15.31668928,
        "meta_eccentricity": 0.00060749,
        "meta_inclination": 97.4378,
        "meta_ra_of_asc_node": 105.6962,
        "meta_arg_of_pericenter": 236.7489,
        "meta_mean_anomaly": 123.317,
        "meta_ephemeris_type": 0,
        "meta_classification_type": "U",
        "meta_norad_cat_id": 58662,
        "meta_element_set_no": 999,
        "meta_rev_at_epoch": 10984,
        "meta_bstar": 0.000326602,
        "meta_mean_motion_dot": 9.916e-05,
        "meta_mean_motion_ddot": 0,
        "tle_line1": "1 58662U 23208C   25352.28344382  .00009916  00000+0  32660-3 0  9997",
        "tle_line2": "2 58662  97.4378 105.6962 0006074 236.7489 123.3170 15.31668928109840"
      },
      "geometry": {
        "type": "Point",
        "coordinates": [
          104.36239992398961,
          13.484756605155226
        ]
      }
    },
    {
      "type": "Feature",
      "properties": {
        "norad_id": 58663,
        "name": "TIANMU-1 22",
        "group": "weather",
        "lat": -30.270165339192076,
        "lon": -80.5483055774719,
        "alt_km": 487.4304020022428,
        "timestamp": "2025-12-18T17:50:14.600725+00:00",
        "meta_object_name": "TIANMU-1 22",
        "meta_object_id": "2023-208D",
        "meta_epoch": "2025-12-18T07:29:12.431616",
        "meta_mean_motion": 15.27698394,
        "meta_eccentricity": 0.00027002,
        "meta_inclination": 97.4386,
        "meta_ra_of_asc_node": 103.3949,
        "meta_arg_of_pericenter": 257.3613,
        "meta_mean_anomaly": 102.7324,
        "meta_ephemeris_type": 0,
        "meta_classification_type": "U",
        "meta_norad_cat_id": 58663,
        "meta_element_set_no": 999,
        "meta_rev_at_epoch": 10968,
        "meta_bstar": 0.00028851105,
        "meta_mean_motion_dot": 7.736e-05,
        "meta_mean_motion_ddot": 0,
        "tle_line1": "1 58663U 23208D   25352.31194944  .00007736  00000+0  28851-3 0  9994",
        "tle_line2": "2 58663  97.4386 103.3949 0002700 257.3613 102.7324 15.27698394109689"
      },
      "geometry": {
        "type": "Point",
        "coordinates": [
          -80.5483055774719,
          -30.270165339192076
        ]
      }
    },
    {
      "type": "Feature",
      "properties": {
        "norad_id": 58700,
        "name": "TIANMU-1 15",
        "group": "weather",
        "lat": -82.47356738491342,
        "lon": -103.0401403642171,
        "alt_km": 495.63042108736227,
        "timestamp": "2025-12-18T17:50:14.600736+00:00",
        "meta_object_name": "TIANMU-1 15",
        "meta_object_id": "2024-004A",
        "meta_epoch": "2025-12-18T07:12:00.544320",
        "meta_mean_motion": 15.24479942,
        "meta_eccentricity": 0.00059513,
        "meta_inclination": 97.4621,
        "meta_ra_of_asc_node": 173.7485,
        "meta_arg_of_pericenter": 266.955,
        "meta_mean_anomaly": 93.1006,
        "meta_ephemeris_type": 0,
        "meta_classification_type": "U",
        "meta_norad_cat_id": 58700,
        "meta_element_set_no": 999,
        "meta_rev_at_epoch": 10819,
        "meta_bstar": 0.00024899841,
        "meta_mean_motion_dot": 6.048e-05,
        "meta_mean_motion_ddot": 0,
        "tle_line1": "1 58700U 24004A   25352.30000630  .00006048  00000+0  24900-3 0  9994",
        "tle_line2": "2 58700  97.4621 173.7485 0005951 266.9550  93.1006 15.24479942108194"
      },
      "geometry": {
        "type": "Point",
        "coordinates": [
          -103.0401403642171,
          -82.47356738491342
        ]
      }
    }
  ]
}